STARLINK-37340          
1 68708U 26081K   26113.58602730 -.00727010  00000+0 -34238-2 0  9990
2 68708  53.1598 195.8754 0001390  50.6317 309.4830 15.84161496  1470
