{
  "norad_id": 68708,
  "name": "STARLINK-37340",
  "history": [
    {
      "epoch": "2026-04-23T14:03:52.758720Z",
      "apogee_km": 319.61806167611394,
      "perigee_km": 317.75554104048024,
      "latitude_deg": -1.1073806075597296e-05,
      "longitude_deg": 133.2744274301005,
      "height_km": 319.01536679896975,
      "semi_major_axis_km": 6696.823801358297,
      "eccentricity": 0.00013906,
      "inclination_deg": 53.1598,
      "raan_deg": 195.8754,
      "arg_perigee_deg": 50.6317,
      "mean_anomaly_deg": 309.483,
      "mean_motion_rev_day": 15.84161496
    }
  ]
}